{
    "links": {
        "self": "http://www.neowsapp.com/rest/v1/neo/3761735?api_key=iIulBulltgU6a56xZRHN4H3l9WmuAYTsLGpBGhQ2"
    },
    "id": "3761735",
    "neo_reference_id": "3761735",
    "name": "(2016 UR36)",
    "designation": "2016 UR36",
    "nasa_jpl_url": "http://ssd.jpl.nasa.gov/sbdb.cgi?sstr=3761735",
    "absolute_magnitude_h": 27.5,
    "estimated_diameter": {
        "kilometers": {
            "estimated_diameter_min": 0.008405334,
            "estimated_diameter_max": 0.0187948982
        },
        "meters": {
            "estimated_diameter_min": 8.4053340207,
            "estimated_diameter_max": 18.7948982439
        },
        "miles": {
            "estimated_diameter_min": 0.0052228308,
            "estimated_diameter_max": 0.0116786047
        },
        "feet": {
            "estimated_diameter_min": 27.5765560686,
            "estimated_diameter_max": 61.6630539546
        }
    },
    "is_potentially_hazardous_asteroid": false,
    "close_approach_data": [
        {
            "close_approach_date": "1996-04-25",
            "close_approach_date_full": "1996-Apr-25 16:24",
            "epoch_date_close_approach": 830449440000,
            "relative_velocity": {
                "kilometers_per_second": "29.3135713501",
                "kilometers_per_hour": "105528.8568602491",
                "miles_per_hour": "65571.5277529698"
            },
            "miss_distance": {
                "astronomical": "0.370120078",
                "lunar": "143.976710342",
                "kilometers": "55369175.31303386",
                "miles": "34404810.167272868"
            },
            "orbiting_body": "Earth"
        },
        {
            "close_approach_date": "2016-10-31",
            "close_approach_date_full": "2016-Oct-31 03:14",
            "epoch_date_close_approach": 1477883640000,
            "relative_velocity": {
                "kilometers_per_second": "18.1001743703",
                "kilometers_per_hour": "65160.6277332265",
                "miles_per_hour": "40488.2800490151"
            },
            "miss_distance": {
                "astronomical": "0.0033382147",
                "lunar": "1.2985655183",
                "kilometers": "499389.808722689",
                "miles": "310306.4380395482"
            },
            "orbiting_body": "Earth"
        },
        {
            "close_approach_date": "2016-10-31",
            "close_approach_date_full": "2016-Oct-31 09:00",
            "epoch_date_close_approach": 1477904400000,
            "relative_velocity": {
                "kilometers_per_second": "18.3343173409",
                "kilometers_per_hour": "66003.5424273167",
                "miles_per_hour": "41012.0344599069"
            },
            "miss_distance": {
                "astronomical": "0.0036196514",
                "lunar": "1.4080443946",
                "kilometers": "541492.139582518",
                "miles": "336467.6133260284"
            },
            "orbiting_body": "Moon"
        },
        {
            "close_approach_date": "2019-10-08",
            "close_approach_date_full": "2019-Oct-08 14:07",
            "epoch_date_close_approach": 1570543620000,
            "relative_velocity": {
                "kilometers_per_second": "30.6661368332",
                "kilometers_per_hour": "110398.0925995326",
                "miles_per_hour": "68597.0814821929"
            },
            "miss_distance": {
                "astronomical": "0.4232167524",
                "lunar": "164.6313166836",
                "kilometers": "63312324.707357388",
                "miles": "39340454.3320444344"
            },
            "orbiting_body": "Earth"
        }
    ],
    "orbital_data": {
        "orbit_id": "4",
        "orbit_determination_date": "2017-04-06 08:22:46",
        "first_observation_date": "2016-10-26",
        "last_observation_date": "2016-10-30",
        "data_arc_in_days": 4,
        "observations_used": 37,
        "orbit_uncertainty": "7",
        "minimum_orbit_intersection": ".000497662",
        "jupiter_tisserand_invariant": "3.471",
        "epoch_osculation": "2459000.5",
        "eccentricity": ".6697191588052103",
        "semi_major_axis": "2.049338171238949",
        "inclination": ".4559291454931995",
        "ascending_node_longitude": "18.57953778216232",
        "orbital_period": "1071.56586575532",
        "perihelion_distance": ".6768571350893922",
        "perihelion_argument": "97.45781715911069",
        "aphelion_distance": "3.421819207388506",
        "perihelion_time": "2458808.856062697764",
        "mean_anomaly": "64.38411266504305",
        "mean_motion": ".3359569500156156",
        "equinox": "J2000",
        "orbit_class": {
            "orbit_class_type": "APO",
            "orbit_class_description": "Near-Earth asteroid orbits which cross the Earth’s orbit similar to that of 1862 Apollo",
            "orbit_class_range": "a (semi-major axis) > 1.0 AU; q (perihelion) < 1.017 AU"
        }
    },
    "is_sentry_object": false
}